NORAD_CAT_ID,OBJECT_NAME,OBJECT_TYPE,EPOCH,MEAN_MOTION,ECCENTRICITY,INCLINATION,RA_OF_ASC_NODE,ARG_OF_PERICENTER,MEAN_ANOMALY,BSTAR,MEAN_MOTION_DOT,MEAN_MOTION_DDOT,TLE_LINE0,TLE_LINE1,TLE_LINE2,SEMIMAJOR_AXIS,PERIOD,APOGEE,PERIGEE,DECAYED
53904.0,STARLINK-4787,PAYLOAD,2022-11-25 22:00:00,15.2566057,0.0001904,53.2168,310.1086,38.6569,171.6648,-0.049695,-0.01180363,0.0,0 STARLINK-4787,1 53904U 22119U   22329.91667824 -.01180363  00000-0 -49695-1 0  9995,2 53904  53.2168 310.1086 0001904  38.6569 171.6648 15.25660570  1302,6866.94,94.385,490.112,487.497,0.0
53904.0,STARLINK-4787,PAYLOAD,2022-11-26 14:00:01,15.24030389,0.0001829,53.2168,307.0424,39.2001,232.711,-0.052097,-0.01178232,0.0,0 STARLINK-4787,1 53904U 22119U   22330.58334491 -.01178232  00000-0 -52097-1 0  9993,2 53904  53.2168 307.0424 0001829  39.2001 232.7110 15.24030389  1308,6871.8359999999975,94.486,494.957,492.444,0.0
53904.0,STARLINK-4787,PAYLOAD,2022-11-26 22:00:00,15.23224778,0.0001641999999999,53.2171,305.5105,34.7626,266.4715,-0.053847,-0.01187929,0.0,0 STARLINK-4787,1 53904U 22119U   22330.91667824 -.01187929  00000-0 -53847-1 0  9996,2 53904  53.2171 305.5105 0001642  34.7626 266.4715 15.23224778  1308,6874.2580000000025,94.536,497.252,494.995,0.0
53904.0,STARLINK-4787,PAYLOAD,2022-11-27 14:00:01,15.21580762,0.0001658,53.2169,302.4556,35.2559,321.707,-0.055445,-0.01166646,0.0,0 STARLINK-4787,1 53904U 22119U   22331.58334491 -.01166646  00000-0 -55445-1 0  9990,2 53904  53.2169 302.4556 0001658  35.2559 321.7070 15.21580762  1304,6879.209,94.638,502.215,499.9330000000001,0.0
53904.0,STARLINK-4787,PAYLOAD,2022-11-27 22:00:00,15.20828369,0.0001721999999999,53.2168,300.9298,22.9359,0.3875,-0.060841,-0.01245042,0.0,0 STARLINK-4787,1 53904U 22119U   22331.91667824 -.01245042  00000-0 -60841-1 0  9990,2 53904  53.2168 300.9298 0001722  22.9359   0.3875 15.20828369 10447,6881.478,94.685,504.528,502.158,0.0
53904.0,STARLINK-4787,PAYLOAD,2022-11-28 14:00:01,15.1913532,0.0001693,53.2171,297.8861,42.8157,30.3959,-0.059216,-0.01160208,0.0,0 STARLINK-4787,1 53904U 22119U   22332.58334491 -.01160208  00000-0 -59216-1 0  9999,2 53904  53.2171 297.8861 0001693  42.8157  30.3959 15.19135320 10548,6886.59,94.791,509.62,507.289,0.0
53904.0,STARLINK-4787,PAYLOAD,2022-11-28 22:00:01,15.18344938,0.0001803,53.2168,296.3659,40.6867,56.0356,-0.062273,-0.01189842,0.0,0 STARLINK-4787,1 53904U 22119U   22332.91668981 -.01189842  00000-0 -62273-1 0  9992,2 53904  53.2168 296.3659 0001803  40.6867  56.0356 15.18344938  1306,6888.979,94.84,512.086,509.602,0.0
53904.0,STARLINK-4787,PAYLOAD,2022-11-29 14:00:01,15.16691887,0.0001823,53.2171,293.3337,43.2266,97.4952,-0.063337,-0.01156524,0.0,0 STARLINK-4787,1 53904U 22119U   22333.58335648 -.01156524  00000-0 -63337-1 0  9990,2 53904  53.2171 293.3337 0001823  43.2266  97.4952 15.16691887 10693,6893.984,94.943,517.106,514.592,0.0
53904.0,STARLINK-4787,PAYLOAD,2022-11-29 22:00:00,15.15895318,0.0001922,53.2169,291.8194,42.0222,119.1537,-0.066138,-0.01178519,0.0,0 STARLINK-4787,1 53904U 22119U   22333.91667824 -.01178519  00000-0 -66138-1 0  9991,2 53904  53.2169 291.8194 0001922  42.0222 119.1537 15.15895318  1306,6896.399,94.993,519.589,516.938,0.0
53904.0,STARLINK-4787,PAYLOAD,2022-11-30 14:00:01,15.14245273,0.0001905,53.2175,288.7978,40.7872,158.5827,-0.067415,-0.0114859,0.0,0 STARLINK-4787,1 53904U 22119U   22334.58335648 -.01148590  00000-0 -67415-1 0  9996,2 53904  53.2175 288.7978 0001905  40.7872 158.5827 15.14245273 10841,6901.408,95.097,524.5880000000002,521.9580000000002,0.0
53904.0,STARLINK-4787,PAYLOAD,2022-11-30 22:00:00,15.13430462,0.0001866,53.2175,287.2896,43.4918,173.408,-0.068834,-0.01146221,0.0,0 STARLINK-4787,1 53904U 22119U   22334.91667824 -.01146221  00000-0 -68834-1 0  9992,2 53904  53.2175 287.2896 0001866  43.4918 173.4080 15.13430462  1304,6903.885,95.148,527.038,524.461,0.0
53904.0,STARLINK-4787,PAYLOAD,2022-12-01 14:00:01,15.11804254,0.0001598,53.2175,284.2796,52.7392,196.4121,-0.0722309999999999,-0.01148767,0.0,0 STARLINK-4787,1 53904U 22119U   22335.58334491 -.01148767  00000-0 -72231-1 0  9990,2 53904  53.2175 284.2796 0001598  52.7392 196.4121 15.11804254  1304,6908.835,95.25,531.804,529.596,0.0
53904.0,STARLINK-4787,PAYLOAD,2022-12-01 20:00:01,15.11192759,0.0001713,53.2174,283.152,52.0067,118.2943,-0.0733289999999999,-0.01146671,0.0,0 STARLINK-4787,1 53904U 22119U   22335.83335648 -.01146671  00000-0 -73329-1 0  9994,2 53904  53.2174 283.1520 0001713  52.0067 118.2943 15.11192759 11032,6910.698,95.289,533.747,531.379,0.0
53904.0,STARLINK-4787,PAYLOAD,2022-12-01 22:00:00,15.11025868,0.0001706999999999,53.2168,282.7773,45.7965,217.9952,-0.077049,-0.01194994,0.0,0 STARLINK-4787,1 53904U 22119U   22335.91667824 -.01194994  00000-0 -77049-1 0  9991,2 53904  53.2168 282.7773 0001707  45.7965 217.9952 15.11025868  1301,6911.206999999999,95.299,534.252,531.8919999999998,0.0
53904.0,STARLINK-4787,PAYLOAD,2022-12-02 14:00:01,15.09282132,0.0002064,53.2172,279.779,36.1518,254.0354,-0.037702,-0.00568295,0.0,0 STARLINK-4787,1 53904U 22119U   22336.58334491 -.00568295  00000-0 -37702-1 0  9996,2 53904  53.2172 279.7790 0002064  36.1518 254.0354 15.09282132 11154,6916.529,95.41,539.822,536.967,0.0
53904.0,STARLINK-4787,PAYLOAD,2022-12-02 22:00:00,15.08910348,0.0001962,53.2158,278.2839,50.1875,251.8139,-0.0048516,-0.00076828,0.0,0 STARLINK-4787,1 53904U 22119U   22336.91667824 -.00076828  00000-0 -48516-2 0  9994,2 53904  53.2158 278.2839 0001962  50.1875 251.8139 15.08910348 11202,6917.665,95.433,540.888,538.173,0.0
53904.0,STARLINK-4787,PAYLOAD,2022-12-03 06:00:00,15.08852203,0.0002064,53.2157,276.7889,43.7891,269.8735,0.0026381,0.00041962,0.0,0 STARLINK-4787,1 53904U 22119U   22337.25001157  .00041962  00000-0  26381-2 0  9998,2 53904  53.2157 276.7889 0002064  43.7891 269.8735 15.08852203 11250,6917.843000000003,95.437,541.136,538.28,0.0
53904.0,STARLINK-4787,PAYLOAD,2022-12-03 14:00:01,15.08883928,0.0001806,53.2158,275.2908,44.8474,280.4482,-0.00325,-0.00051704,0.0,0 STARLINK-4787,1 53904U 22119U   22337.58334491 -.00051704  00000-0 -32500-2 0  9991,2 53904  53.2158 275.2908 0001806  44.8474 280.4482 15.08883928  1300,6917.746,95.435,540.86,538.362,0.0
53904.0,STARLINK-4787,PAYLOAD,2022-12-03 22:00:00,15.08868377,0.0001671,53.216,273.7943,43.2943,293.6212,-0.0058613,-0.00092448,0.0,0 STARLINK-4787,1 53904U 22119U   22337.91667824 -.00092448  00000-0 -58613-2 0  9990,2 53904  53.2160 273.7943 0001671  43.2943 293.6212 15.08868377 11353,6917.794,95.436,540.815,538.503,0.0
53904.0,STARLINK-4787,PAYLOAD,2022-12-04 12:00:00,15.08822248,0.0001685,53.2157,271.1759,37.8372,229.3248,-0.0014785,-0.0002373,0.0,0 STARLINK-4787,1 53904U 22119U   22338.50001157 -.00023730  00000-0 -14785-2 0  9997,2 53904  53.2157 271.1759 0001685  37.8372 229.3248 15.08822248 11437,6917.935,95.439,540.965,538.634,0.0
53904.0,STARLINK-4787,PAYLOAD,2022-12-04 14:00:01,15.08805027,0.0001624,53.2158,270.8014,39.6834,320.3749,0.0011066,0.00017351,0.0,0 STARLINK-4787,1 53904U 22119U   22338.58334491  .00017351  00000-0  11066-2 0  9994,2 53904  53.2158 270.8014 0001624  39.6834 320.3749 15.08805027  1303,6917.986999999999,95.44,540.976,538.729,0.0
53904.0,STARLINK-4787,PAYLOAD,2022-12-04 22:00:00,15.08766601,0.0001541999999999,53.2168,269.3039,41.5064,330.1175,0.0077751,0.00125411,0.0,0 STARLINK-4787,1 53904U 22119U   22338.91667824  .00125411  00000-0  77751-2 0  9990,2 53904  53.2168 269.3039 0001542  41.5064 330.1175 15.08766601  1306,6918.105,95.442,541.0369999999998,538.903,0.0
53904.0,STARLINK-4787,PAYLOAD,2022-12-05 06:00:00,15.08786395,0.0001757,53.2157,267.8104,34.3821,348.796,0.0035554,0.00056668,0.0,0 STARLINK-4787,1 53904U 22119U   22339.25001157  .00056668  00000-0  35554-2 0  9991,2 53904  53.2157 267.8104 0001757  34.3821 348.7960 15.08786395 11556,6918.044,95.441,541.125,538.694,0.0
53904.0,STARLINK-4787,PAYLOAD,2022-12-05 14:00:01,15.08806677,0.0001676999999999,53.2156,266.3124,49.7678,345.0055,0.0029832,0.00047466,0.0,0 STARLINK-4787,1 53904U 22119U   22339.58335648  .00047466  00000-0  29832-2 0  9990,2 53904  53.2156 266.3124 0001677  49.7678 345.0055 15.08806677 11609,6917.982,95.44,541.007,538.687,0.0
53904.0,STARLINK-4787,PAYLOAD,2022-12-05 22:00:01,15.08859268,0.0001739,53.2156,264.8166,52.6369,353.7066,-0.00085627,-0.00013897,0.0,0 STARLINK-4787,1 53904U 22119U   22339.91668981 -.00013897  00000-0 -85627-3 0  9994,2 53904  53.2156 264.8166 0001739  52.6369 353.7066 15.08859268  1305,6917.821,95.436,540.89,538.4830000000002,0.0
53904.0,STARLINK-4787,PAYLOAD,2022-12-06 12:00:00,15.08881839,0.0001754999999999,53.2152,262.1978,50.309,286.2906,-0.0022436,-0.00035859,0.0,0 STARLINK-4787,1 53904U 22119U   22340.50001157 -.00035859  00000-0 -22436-2 0  9997,2 53904  53.2152 262.1978 0001755  50.3090 286.2906 15.08881839 11748,6917.753000000002,95.435,540.832,538.403,0.0
53904.0,STARLINK-4787,PAYLOAD,2022-12-06 16:00:00,15.08857161,0.0001672,53.215,261.4489,52.4088,110.0132,0.00039289,5.973e-05,0.0,0 STARLINK-4787,1 53904U 22119U   22340.66667824  .00005973  00000-0  39289-3 0  9990,2 53904  53.2150 261.4489 0001672  52.4088 110.0132 15.08857161  1300,6917.828,95.436,540.85,538.536,0.0
53904.0,STARLINK-4787,PAYLOAD,2022-12-07 02:24:41,15.08842131,0.0001641999999999,53.2162,259.5029,43.188,316.9241,0.00020875,3.036e-05,0.0,0 STARLINK-4787,1 53904U 22119U   22341.10048198  .00003036  00000-0  20875-3 0  9996,2 53904  53.2162 259.5029 0001642  43.1880 316.9241 15.08842131 11833,6917.874,95.437,540.875,538.6030000000002,0.0
53904.0,STARLINK-4787,PAYLOAD,2022-12-08 00:40:06,15.08839595,0.0001855,53.2168,255.3393,47.3896,312.7252,5.619100000000001e-05,6.06e-06,0.0,0 STARLINK-4787,1 53904U 22119U   22342.02785045  .00000606  00000-0  56191-4 0  9998,2 53904  53.2168 255.3393 0001855  47.3896 312.7252 15.08839595 11977,6917.882,95.438,541.03,538.4630000000002,0.0
